{"type": "FeatureCollection", "features": [ {"type": "Feature", "properties": {"norad_id": 66645, "name": "SHENZHOU-22", "group": "last-30-days", "lat": -3.282822496613412, "lon": -51.81189339139455, "alt_km": 392.18182507023175, "timestamp": "2025-12-23T09:49:05.795881+00:00", "meta": {"OBJECT_NAME": "SHENZHOU-22", "OBJECT_ID": "2025-272A", "EPOCH": "2025-12-22T20:00:27.776448", "MEAN_MOTION": 15.59577421, "ECCENTRICITY": 0.00078985, "INCLINATION": 41.4686, "RA_OF_ASC_NODE": 315.409, "ARG_OF_PERICENTER": 119.6774, "MEAN_ANOMALY": 240.4851, "EPHEMERIS_TYPE": 0, "CLASSIFICATION_TYPE": "U", "NORAD_CAT_ID": 66645, "ELEMENT_SET_NO": 999, "REV_AT_EPOCH": 26550, "BSTAR": 0.00020454, "MEAN_MOTION_DOT": 0.00016458, "MEAN_MOTION_DDOT": 0}, "tle": {"line1": "1 66645U 25272A   25356.83365482  .00016458  00000+0  20454-3 0  9996", "line2": "2 66645  41.4686 315.4090 0007898 119.6774 240.4851 15.59577421265505"}}, "geometry": {"type": "Point", "coordinates": [-51.81189339139455, -3.282822496613412]}}, {"type": "Feature", "properties": {"norad_id": 66647, "name": "COSMOS 2597 (RODNIK-S 22)", "group": "last-30-days", "lat": -82.38403550508838, "lon": 179.9549105702866, "alt_km": 1499.7672879412994, "timestamp": "2025-12-23T09:49:05.795892+00:00", "meta": {"OBJECT_NAME": "COSMOS 2597 (RODNIK-S 22)", "OBJECT_ID": "2025-273A", "EPOCH": "2025-12-22T20:46:30.437184", "MEAN_MOTION": 12.41952159, "ECCENTRICITY": 0.00076106, "INCLINATION": 82.4994, "RA_OF_ASC_NODE": 280.1616, "ARG_OF_PERICENTER": 262.4856, "MEAN_ANOMALY": 97.5358, "EPHEMERIS_TYPE": 0, "CLASSIFICATION_TYPE": "U", "NORAD_CAT_ID": 66647, "ELEMENT_SET_NO": 999, "REV_AT_EPOCH": 339, "BSTAR": 0.00021443972, "MEAN_MOTION_DOT": 3.9e-07, "MEAN_MOTION_DDOT": 0}, "tle": {"line1": "1 66647U 25273A   25356.86563006  .00000039  00000+0  21444-3 0  9992", "line2": "2 66647  82.4994 280.1616 0007610 262.4856  97.5358 12.41952159  3399"}}, "geometry": {"type": "Point", "coordinates": [179.9549105702866, -82.38403550508838]}}, {"type": "Feature", "properties": {"norad_id": 66648, "name": "COSMOS 2598 (RODNIK-S 23)", "group": "last-30-days", "lat": -6.437914116472036, "lon": -81.03897778335713, "alt_km": 1501.4891611524745, "timestamp": "2025-12-23T09:49:05.795903+00:00", "meta": {"OBJECT_NAME": "COSMOS 2598 (RODNIK-S 23)", "OBJECT_ID": "2025-273B", "EPOCH": "2025-12-22T20:20:00.271968", "MEAN_MOTION": 12.43233538, "ECCENTRICITY": 0.00081503, "INCLINATION": 82.5032, "RA_OF_ASC_NODE": 280.1617, "ARG_OF_PERICENTER": 212.7567, "MEAN_ANOMALY": 147.3009, "EPHEMERIS_TYPE": 0, "CLASSIFICATION_TYPE": "U", "NORAD_CAT_ID": 66648, "ELEMENT_SET_NO": 999, "REV_AT_EPOCH": 339, "BSTAR": 0.00012265645, "MEAN_MOTION_DOT": 2.7e-07, "MEAN_MOTION_DDOT": 0}, "tle": {"line1": "1 66648U 25273B   25356.84722537  .00000027  00000+0  12266-3 0  9996", "line2": "2 66648  82.5032 280.1617 0008150 212.7567 147.3009 12.43233538  3394"}}, "geometry": {"type": "Point", "coordinates": [-81.03897778335713, -6.437914116472036]}}, {"type": "Feature", "properties": {"norad_id": 66649, "name": "COSMOS 2599 (RODNIK-S 24)", "group": "last-30-days", "lat": -38.95839604711798, "lon": 105.96681789259632, "alt_km": 1503.8826040244794, "timestamp": "2025-12-23T09:49:05.795914+00:00", "meta": {"OBJECT_NAME": "COSMOS 2599 (RODNIK-S 24)", "OBJECT_ID": "2025-273C", "EPOCH": "2025-12-22T21:01:55.720704", "MEAN_MOTION": 12.41151518, "ECCENTRICITY": 0.00062674, "INCLINATION": 82.505, "RA_OF_ASC_NODE": 280.1868, "ARG_OF_PERICENTER": 253.4588, "MEAN_ANOMALY": 106.5803, "EPHEMERIS_TYPE": 0, "CLASSIFICATION_TYPE": "U", "NORAD_CAT_ID": 66649, "ELEMENT_SET_NO": 999, "REV_AT_EPOCH": 339, "BSTAR": 0.00062033879, "MEAN_MOTION_DOT": 9.4e-07, "MEAN_MOTION_DDOT": 0}, "tle": {"line1": "1 66649U 25273C   25356.87633936  .00000094  00000+0  62034-3 0  9996", "line2": "2 66649  82.5050 280.1868 0006267 253.4588 106.5803 12.41151518  3399"}}, "geometry": {"type": "Point", "coordinates": [105.96681789259632, -38.95839604711798]}}, {"type": "Feature", "properties": {"norad_id": 66650, "name": "BEE-1000", "group": "last-30-days", "lat": -47.96534344853602, "lon": -66.92088796719702, "alt_km": 600.7006092363617, "timestamp": "2025-12-23T09:49:05.795925+00:00", "meta": {"OBJECT_NAME": "BEE-1000", "OBJECT_ID": "2025-274A", "EPOCH": "2025-12-22T01:50:15.669600", "MEAN_MOTION": 14.916911, "ECCENTRICITY": 0.00108663, "INCLINATION": 97.7404, "RA_OF_ASC_NODE": 283.0932, "ARG_OF_PERICENTER": 216.848, "MEAN_ANOMALY": 143.1994, "EPHEMERIS_TYPE": 0, "CLASSIFICATION_TYPE": "U", "NORAD_CAT_ID": 66650, "ELEMENT_SET_NO": 999, "REV_AT_EPOCH": 379, "BSTAR": 0.0001581754, "MEAN_MOTION_DOT": 1.536e-05, "MEAN_MOTION_DDOT": 0}, "tle": {"line1": "1 66650U 25274A   25356.07657025  .00001536  00000+0  15818-3 0  9996", "line2": "2 66650  97.7404 283.0932 0010866 216.8480 143.1994 14.91691100  3795"}}, "geometry": {"type": "Point", "coordinates": [-66.92088796719702, -47.96534344853602]}}, {"type": "Feature", "properties": {"norad_id": 66651, "name": "2025-274B", "group": "last-30-days", "lat": -37.232879886881996, "lon": -69.66328618584137, "alt_km": 601.3248145730822, "timestamp": "2025-12-23T09:49:05.795935+00:00", "meta": {"OBJECT_NAME": "2025-274B", "OBJECT_ID": "2025-274B", "EPOCH": "2025-12-21T17:44:37.356000", "MEAN_MOTION": 14.91854943, "ECCENTRICITY": 0.00111294, "INCLINATION": 97.7399, "RA_OF_ASC_NODE": 282.7646, "ARG_OF_PERICENTER": 216.884, "MEAN_ANOMALY": 143.1615, "EPHEMERIS_TYPE": 0, "CLASSIFICATION_TYPE": "U", "NORAD_CAT_ID": 66651, "ELEMENT_SET_NO": 999, "REV_AT_EPOCH": 374, "BSTAR": 0.00029304221, "MEAN_MOTION_DOT": 2.907e-05, "MEAN_MOTION_DDOT": 0}, "tle": {"line1": "1 66651U 25274B   25355.73932125  .00002907  00000+0  29304-3 0  9994", "line2": "2 66651  97.7399 282.7646 0011129 216.8840 143.1615 14.91854943  3741"}}, "geometry": {"type": "Point", "coordinates": [-69.66328618584137, -37.232879886881996]}}, {"type": "Feature", "properties": {"norad_id": 66652, "name": "2025-274C", "group": "last-30-days", "lat": -26.023750995699316, "lon": -71.78153757738545, "alt_km": 600.8104267175913, "timestamp": "2025-12-23T09:49:05.795945+00:00", "meta": {"OBJECT_NAME": "2025-274C", "OBJECT_ID": "2025-274C", "EPOCH": "2025-12-22T06:34:20.535456", "MEAN_MOTION": 14.91951584, "ECCENTRICITY": 0.00107003, "INCLINATION": 97.7405, "RA_OF_ASC_NODE": 283.2957, "ARG_OF_PERICENTER": 221.5965, "MEAN_ANOMALY": 138.4441, "EPHEMERIS_TYPE": 0, "CLASSIFICATION_TYPE": "U", "NORAD_CAT_ID": 66652, "ELEMENT_SET_NO": 999, "REV_AT_EPOCH": 382, "BSTAR": 0.00031358877, "MEAN_MOTION_DOT": 3.122e-05, "MEAN_MOTION_DDOT": 0}, "tle": {"line1": "1 66652U 25274C   25356.27384879  .00003122  00000+0  31359-3 0  9995", "line2": "2 66652  97.7405 283.2957 0010700 221.5965 138.4441 14.91951584  3828"}}, "geometry": {"type": "Point", "coordinates": [-71.78153757738545, -26.023750995699316]}}, {"type": "Feature", "properties": {"norad_id": 66653, "name": "2025-274D", "group": "last-30-days", "lat": -25.59865489944891, "lon": -71.8533931774126, "alt_km": 601.5379551700435, "timestamp": "2025-12-23T09:49:05.795958+00:00", "meta": {"OBJECT_NAME": "2025-274D", "OBJECT_ID": "2025-274D", "EPOCH": "2025-12-22T01:44:29.360256", "MEAN_MOTION": 14.91947485, "ECCENTRICITY": 0.00116201, "INCLINATION": 97.7403, "RA_OF_ASC_NODE": 283.0978, "ARG_OF_PERICENTER": 219.0062, "MEAN_ANOMALY": 141.0319, "EPHEMERIS_TYPE": 0, "CLASSIFICATION_TYPE": "U", "NORAD_CAT_ID": 66653, "ELEMENT_SET_NO": 999, "REV_AT_EPOCH": 379, "BSTAR": 0.00020975597, "MEAN_MOTION_DOT": 2.07e-05, "MEAN_MOTION_DDOT": 0}, "tle": {"line1": "1 66653U 25274D   25356.07256204  .00002070  00000+0  20976-3 0  9998", "line2": "2 66653  97.7403 283.0978 0011620 219.0062 141.0319 14.91947485  3795"}}, "geometry": {"type": "Point", "coordinates": [-71.8533931774126, -25.59865489944891]}}, {"type": "Feature", "properties": {"norad_id": 66654, "name": "JACK E", "group": "last-30-days", "lat": -9.20848070919217, "lon": -74.31821591808988, "alt_km": 601.4414037540591, "timestamp": "2025-12-23T09:49:05.795969+00:00", "meta": {"OBJECT_NAME": "JACK E", "OBJECT_ID": "2025-274E", "EPOCH": "2025-12-22T14:32:48.168384", "MEAN_MOTION": 14.92130959, "ECCENTRICITY": 0.00122345, "INCLINATION": 97.7406, "RA_OF_ASC_NODE": 283.6294, "ARG_OF_PERICENTER": 218.6973, "MEAN_ANOMALY": 141.3371, "EPHEMERIS_TYPE": 0, "CLASSIFICATION_TYPE": "U", "NORAD_CAT_ID": 66654, "ELEMENT_SET_NO": 999, "REV_AT_EPOCH": 387, "BSTAR": 0.00026617099, "MEAN_MOTION_DOT": 2.654e-05, "MEAN_MOTION_DDOT": 0}, "tle": {"line1": "1 66654U 25274E   25356.60611306  .00002654  00000+0  26617-3 0  9992", "line2": "2 66654  97.7406 283.6294 0012234 218.6973 141.3371 14.92130959  3875"}}, "geometry": {"type": "Point", "coordinates": [-74.31821591808988, -9.20848070919217]}}, {"type": "Feature", "properties": {"norad_id": 66655, "name": "2025-274F", "group": "last-30-days", "lat": -41.70028355388173, "lon": -68.65471288864609, "alt_km": 597.7143712612988, "timestamp": "2025-12-23T09:49:05.795981+00:00", "meta": {"OBJECT_NAME": "2025-274F", "OBJECT_ID": "2025-274F", "EPOCH": "2025-12-22T19:30:46.041696", "MEAN_MOTION": 14.91185344, "ECCENTRICITY": 0.00050486, "INCLINATION": 97.7313, "RA_OF_ASC_NODE": 283.809, "ARG_OF_PERICENTER": 346.5014, "MEAN_ANOMALY": 13.6069, "EPHEMERIS_TYPE": 0, "CLASSIFICATION_TYPE": "U", "NORAD_CAT_ID": 66655, "ELEMENT_SET_NO": 999, "REV_AT_EPOCH": 390, "BSTAR": 2.0394858e-05, "MEAN_MOTION_DOT": 1.48e-06, "MEAN_MOTION_DDOT": 0}, "tle": {"line1": "1 66655U 25274F   25356.81303289  .00000148  00000+0  20395-4 0  9998", "line2": "2 66655  97.7313 283.8090 0005048 346.5014  13.6069 14.91185344  3907"}}, "geometry": {"type": "Point", "coordinates": [-68.65471288864609, -41.70028355388173]}}]}